sat02754
1 02754U 67034A   20046.90698861  .00000053  00000-0  61675-4 0  9994
2 02754  90.2203 345.5837 0021526  72.7629 320.8527 13.56796054612574
